ONEWEB-0256             
1 48974U 21060H   24040.00068579  .00001662  00000+0  43151-2 0  9996
2 48974  87.9049  39.7815 0001810  89.1007 271.0332 13.16583114127864
ONEWEB-0257             
1 48975U 21060J   24040.03313112  .00000005  00000+0 -20256-4 0  9990
2 48975  87.9047  39.7477 0002056  92.0464 268.0902 13.16594540127820
ONEWEB-0258             
1 48976U 21060K   24040.03472404 -.00000010  00000+0 -60888-4 0  9993
2 48976  87.9045  39.7765 0001844  86.8748 273.2594 13.16593513127823
ONEWEB-0259             
1 48977U 21060L   24040.02838909 -.00000027  00000+0 -10365-3 0  9991
2 48977  87.9046  39.7629 0001879  78.7356 281.3986 13.16593270127866
ONEWEB-0260             
1 48978U 21060M   24040.02206116 -.00000009  00000+0 -56473-4 0  9992
2 48978  87.9047  39.7936 0002314 103.5354 256.6035 13.16595115127836
ONEWEB-0261             
1 48979U 21060N   24040.06479042  .00000129  00000+0  30479-3 0  9995
2 48979  87.9050  39.7741 0002414  83.0295 277.1111 13.16592989127910
ONEWEB-0262             
1 48980U 21060P   24039.89380932  .00000082  00000+0  18206-3 0  9997
2 48980  87.9047  39.7759 0002030  73.8941 286.2413 13.16595297126556
ONEWEB-0263             
1 48981U 21060Q   24039.92547109  .00000065  00000+0  13651-3 0  9993
2 48981  87.9052  39.7819 0002315  80.0039 280.1353 13.16596059126524
